start=new Date('2022-10-27T00:00:00.000Z').valueOf();
sats=[{"ECCENTRICITY":"0.00014310","TLE_LINE1":"1 45703U 20035AY  22299.91250213  .00008484  00000-0  58755-3 0  9993","GP_ID":"216261784","EPHEMERIS_TYPE":"0","MEAN_MOTION_DDOT":"0.0000000000000","MEAN_MOTION_DOT":"0.00008484","OBJECT_NAME":"STARLINK-1407","EPOCH":"2022-10-26T21:54:00.184032","NORAD_CAT_ID":"45703","INCLINATION":"53.0513","PERIOD":"95.591","OBJECT_ID":"2020-035AY","REF_FRAME":"TEME","BSTAR":"0.00058755000000","CENTER_NAME":"EARTH","COUNTRY_CODE":"US","FILE":"3635100","ELEMENT_SET_NO":"999","PERIAPSIS":"546.180","MEAN_ANOMALY":"245.6422","TLE_LINE2":"2 45703  53.0513 157.3139 0001431 114.4716 245.6422 15.06414034133796","MEAN_ELEMENT_THEORY":"SGP4","MEAN_MOTION":"15.06414034","DECAY_DATE":null,"APOAPSIS":"548.162","SEMIMAJOR_AXIS":"6925.306","ARG_OF_PERICENTER":"114.4716","SITE":"AFETR","CLASSIFICATION_TYPE":"U","REV_AT_EPOCH":"13379","LAUNCH_DATE":"2020-06-04","OBJECT_TYPE":"PAYLOAD","RCS_SIZE":"LARGE","RA_OF_ASC_NODE":"157.3139","TIME_SYSTEM":"UTC"},{"FILE":"3635100","COUNTRY_CODE":"US","ELEMENT_SET_NO":"999","ECCENTRICITY":"0.00011750","TLE_LINE1":"1 45704U 20035AZ  22299.80558879  .00004511  00000-0  32158-3 0  9997","MEAN_MOTION_DOT":"0.00004511","MEAN_MOTION_DDOT":"0.0000000000000","GP_ID":"216262033","EPHEMERIS_TYPE":"0","OBJECT_NAME":"STARLINK-1409","EPOCH":"2022-10-26T19:20:02.871456","NORAD_CAT_ID":"45704","BSTAR":"0.00032158000000","REF_FRAME":"TEME","PERIOD":"95.593","OBJECT_ID":"2020-035AZ","INCLINATION":"53.0535","CENTER_NAME":"EARTH","ARG_OF_PERICENTER":"92.0382","SEMIMAJOR_AXIS":"6925.369","SITE":"AFETR","CLASSIFICATION_TYPE":"U","LAUNCH_DATE":"2020-06-04","REV_AT_EPOCH":"13336","RA_OF_ASC_NODE":"187.7941","RCS_SIZE":"LARGE","OBJECT_TYPE":"PAYLOAD","TIME_SYSTEM":"UTC","PERIAPSIS":"546.420","MEAN_ANOMALY":"268.0742","MEAN_ELEMENT_THEORY":"SGP4","TLE_LINE2":"2 45704  53.0535 187.7941 0001175  92.0382 268.0742 15.06393369133368","MEAN_MOTION":"15.06393369","APOAPSIS":"548.048","DECAY_DATE":null},{"ELEMENT_SET_NO":"999","COUNTRY_CODE":"US","FILE":"3635100","EPOCH":"2022-10-26T18:23:02.144256","OBJECT_NAME":"STARLINK-1410","NORAD_CAT_ID":"45705","PERIOD":"95.592","INCLINATION":"53.0533","OBJECT_ID":"2020-035BA","REF_FRAME":"TEME","BSTAR":"0.00063831000000","CENTER_NAME":"EARTH","ECCENTRICITY":"0.00015110","TLE_LINE1":"1 45705U 20035BA  22299.76599704  .00009238  00000-0  63831-3 0  9998","GP_ID":"216262785","EPHEMERIS_TYPE":"0","MEAN_MOTION_DDOT":"0.0000000000000","MEAN_MOTION_DOT":"0.00009238","REV_AT_EPOCH":"13334","LAUNCH_DATE":"2020-06-04","RCS_SIZE":"LARGE","OBJECT_TYPE":"PAYLOAD","RA_OF_ASC_NODE":"187.9517","TIME_SYSTEM":"UTC","SEMIMAJOR_AXIS":"6925.358","ARG_OF_PERICENTER":"86.3032","SITE":"AFETR","CLASSIFICATION_TYPE":"U","TLE_LINE2":"2 45705  53.0533 187.9517 0001511  86.3032 273.8129 15.06397074133348","MEAN_ELEMENT_THEORY":"SGP4","MEAN_MOTION":"15.06397074","APOAPSIS":"548.269","DECAY_DATE":null,"PERIAPSIS":"546.176","MEAN_ANOMALY":"273.8129"},{"ELEMENT_SET_NO":"999","COUNTRY_CODE":"US","FILE":"3635100","NORAD_CAT_ID":"45706","OBJECT_NAME":"STARLINK-1411","EPOCH":"2022-10-26T19:46:37.813728","CENTER_NAME":"EARTH","PERIOD":"95.593","INCLINATION":"53.0544","OBJECT_ID":"2020-035BB","REF_FRAME":"TEME","BSTAR":"0.00011403000000","TLE_LINE1":"1 45706U 20035BB  22299.82404877  .00001417  00000-0  11403-3 0  9991","ECCENTRICITY":"0.00014020","EPHEMERIS_TYPE":"0","GP_ID":"216263028","MEAN_MOTION_DDOT":"0.0000000000000","MEAN_MOTION_DOT":"0.00001417","REV_AT_EPOCH":"13377","LAUNCH_DATE":"2020-06-04","TIME_SYSTEM":"UTC","RCS_SIZE":"LARGE","RA_OF_ASC_NODE":"157.6943","OBJECT_TYPE":"PAYLOAD","SEMIMAJOR_AXIS":"6925.406","ARG_OF_PERICENTER":"110.8756","CLASSIFICATION_TYPE":"U","SITE":"AFETR","MEAN_MOTION":"15.06381316","TLE_LINE2":"2 45706  53.0544 157.6943 0001402 110.8756 249.2383 15.06381316133771","MEAN_ELEMENT_THEORY":"SGP4","APOAPSIS":"548.242","DECAY_DATE":null,"MEAN_ANOMALY":"249.2383","PERIAPSIS":"546.300"},{"COUNTRY_CODE":"US","FILE":"3635100","ELEMENT_SET_NO":"999","ECCENTRICITY":"0.00012160","TLE_LINE1":"1 45707U 20035BC  22299.82035515  .00003902  00000-0  28079-3 0  9999","GP_ID":"216261285","EPHEMERIS_TYPE":"0","MEAN_MOTION_DDOT":"0.0000000000000","MEAN_MOTION_DOT":"0.00003902","EPOCH":"2022-10-26T19:41:18.684960","OBJECT_NAME":"STARLINK-1412","NORAD_CAT_ID":"45707","INCLINATION":"53.0548","PERIOD":"95.593","OBJECT_ID":"2020-035BC","REF_FRAME":"TEME","BSTAR":"0.00028079000000","CENTER_NAME":"EARTH","SEMIMAJOR_AXIS":"6925.378","ARG_OF_PERICENTER":"107.6798","SITE":"AFETR","CLASSIFICATION_TYPE":"U","REV_AT_EPOCH":"13378","LAUNCH_DATE":"2020-06-04","RA_OF_ASC_NODE":"157.7309","RCS_SIZE":"LARGE","OBJECT_TYPE":"PAYLOAD","TIME_SYSTEM":"UTC","PERIAPSIS":"546.401","MEAN_ANOMALY":"252.4324","TLE_LINE2":"2 45707  53.0548 157.7309 0001216 107.6798 252.4324 15.06390343133788","MEAN_ELEMENT_THEORY":"SGP4","MEAN_MOTION":"15.06390343","DECAY_DATE":null,"APOAPSIS":"548.085"},{"OBJECT_NAME":"STARLINK-1418","EPOCH":"2022-10-26T19:04:09.731712","NORAD_CAT_ID":"45708","REF_FRAME":"TEME","BSTAR":"0.00062328000000","INCLINATION":"53.0537","PERIOD":"95.592","OBJECT_ID":"2020-035BD","CENTER_NAME":"EARTH","ECCENTRICITY":"0.00013340","TLE_LINE1":"1 45708U 20035BD  22299.79455708  .00009016  00000-0  62328-3 0  9993","MEAN_MOTION_DOT":"0.00009016","GP_ID":"216261535","MEAN_MOTION_DDOT":"0.0000000000000","EPHEMERIS_TYPE":"0","ELEMENT_SET_NO":"999","FILE":"3635100","COUNTRY_CODE":"US","MEAN_ELEMENT_THEORY":"SGP4","TLE_LINE2":"2 45708  53.0537 157.8323 0001334 110.1643 249.9489 15.06407195133780","MEAN_MOTION":"15.06407195","DECAY_DATE":null,"APOAPSIS":"548.115","PERIAPSIS":"546.268","MEAN_ANOMALY":"249.9489","LAUNCH_DATE":"2020-06-04","REV_AT_EPOCH":"13378","RA_OF_ASC_NODE":"157.8323","RCS_SIZE":"LARGE","OBJECT_TYPE":"PAYLOAD","TIME_SYSTEM":"UTC","ARG_OF_PERICENTER":"110.1643","SEMIMAJOR_AXIS":"6925.327","SITE":"AFETR","CLASSIFICATION_TYPE":"U"},{"ELEMENT_SET_NO":"999","COUNTRY_CODE":"US","FILE":"3635100","NORAD_CAT_ID":"45709","OBJECT_NAME":"STARLINK-1421","EPOCH":"2022-10-26T21:32:45.948192","CENTER_NAME":"EARTH","INCLINATION":"53.0542","PERIOD":"95.592","OBJECT_ID":"2020-035BE","REF_FRAME":"TEME","BSTAR":"0.00008905800000","TLE_LINE1":"1 45709U 20035BE  22299.89775403  .00001045  00000-0  89058-4 0  9996","ECCENTRICITY":"0.00014250","EPHEMERIS_TYPE":"0","GP_ID":"216262285","MEAN_MOTION_DDOT":"0.0000000000000","MEAN_MOTION_DOT":"0.00001045","REV_AT_EPOCH":"13375","LAUNCH_DATE":"2020-06-04","TIME_SYSTEM":"UTC","RA_OF_ASC_NODE":"157.3818","RCS_SIZE":"LARGE","OBJECT_TYPE":"PAYLOAD","SEMIMAJOR_AXIS":"6925.352","ARG_OF_PERICENTER":"112.2521","CLASSIFICATION_TYPE":"U","SITE":"AFETR","MEAN_MOTION":"15.06398747","TLE_LINE2":"2 45709  53.0542 157.3818 0001425 112.2521 247.8619 15.06398747133751","MEAN_ELEMENT_THEORY":"SGP4","APOAPSIS":"548.204","DECAY_DATE":null,"MEAN_ANOMALY":"247.8619","PERIAPSIS":"546.231"},{"ECCENTRICITY":"0.00013700","TLE_LINE1":"1 45710U 20035BF  22299.76137910  .00004521  00000-0  32228-3 0  9997","EPHEMERIS_TYPE":"0","GP_ID":"216262528","MEAN_MOTION_DDOT":"0.0000000000000","MEAN_MOTION_DOT":"0.00004521","EPOCH":"2022-10-26T18:16:23.154240","OBJECT_NAME":"STARLINK-1423","NORAD_CAT_ID":"45710","INCLINATION":"53.0540","PERIOD":"95.593","OBJECT_ID":"2020-035BF","BSTAR":"0.00032228000000","REF_FRAME":"TEME","CENTER_NAME":"EARTH","COUNTRY_CODE":"US","FILE":"3635100","ELEMENT_SET_NO":"999","PERIAPSIS":"546.293","MEAN_ANOMALY":"247.5760","TLE_LINE2":"2 45710  53.0540 157.9947 0001370 112.5374 247.5760 15.06390632133779","MEAN_ELEMENT_THEORY":"SGP4","MEAN_MOTION":"15.06390632","APOAPSIS":"548.191","DECAY_DATE":null,"SEMIMAJOR_AXIS":"6925.377","ARG_OF_PERICENTER":"112.5374","SITE":"AFETR","CLASSIFICATION_TYPE":"U","REV_AT_EPOCH":"13377","LAUNCH_DATE":"2020-06-04","RA_OF_ASC_NODE":"157.9947","RCS_SIZE":"LARGE","OBJECT_TYPE":"PAYLOAD","TIME_SYSTEM":"UTC"},{"OBJECT_NAME":"STARLINK-1433","EPOCH":"2022-10-26T21:00:55.505088","NORAD_CAT_ID":"45711","INCLINATION":"53.0545","PERIOD":"95.593","OBJECT_ID":"2020-035BG","REF_FRAME":"TEME","BSTAR":"0.00010072000000","CENTER_NAME":"EARTH","ECCENTRICITY":"0.00015480","TLE_LINE1":"1 45711U 20035BG  22299.87564242  .00001219  00000-0  10072-3 0  9996","EPHEMERIS_TYPE":"0","GP_ID":"216261785","MEAN_MOTION_DDOT":"0.0000000000000","MEAN_MOTION_DOT":"0.00001219","ELEMENT_SET_NO":"999","COUNTRY_CODE":"US","FILE":"3635100","TLE_LINE2":"2 45711  53.0545 157.4680 0001548 110.4950 249.6205 15.06393952133784","MEAN_ELEMENT_THEORY":"SGP4","MEAN_MOTION":"15.06393952","DECAY_DATE":null,"APOAPSIS":"548.304","PERIAPSIS":"546.160","MEAN_ANOMALY":"249.6205","REV_AT_EPOCH":"13378","LAUNCH_DATE":"2020-06-04","RCS_SIZE":"LARGE","OBJECT_TYPE":"PAYLOAD","RA_OF_ASC_NODE":"157.4680","TIME_SYSTEM":"UTC","SEMIMAJOR_AXIS":"6925.367","ARG_OF_PERICENTER":"110.4950","SITE":"AFETR","CLASSIFICATION_TYPE":"U"},{"SITE":"AFETR","CLASSIFICATION_TYPE":"U","SEMIMAJOR_AXIS":"6925.322","ARG_OF_PERICENTER":"105.4774","RCS_SIZE":"LARGE","RA_OF_ASC_NODE":"157.4849","OBJECT_TYPE":"PAYLOAD","TIME_SYSTEM":"UTC","REV_AT_EPOCH":"13379","LAUNCH_DATE":"2020-06-04","PERIAPSIS":"546.148","MEAN_ANOMALY":"254.6380","APOAPSIS":"548.225","DECAY_DATE":null,"TLE_LINE2":"2 45712  53.0514 157.4849 0001499 105.4774 254.6380 15.06408805133796","MEAN_ELEMENT_THEORY":"SGP4","MEAN_MOTION":"15.06408805","COUNTRY_CODE":"US","FILE":"3635100","ELEMENT_SET_NO":"999","MEAN_MOTION_DDOT":"0.0000000000000","GP_ID":"216262034","EPHEMERIS_TYPE":"0","MEAN_MOTION_DOT":"0.00010105","ECCENTRICITY":"0.00014990","TLE_LINE1":"1 45712U 20035BH  22299.87196497  .00010105  00000-0  69614-3 0  9990","INCLINATION":"53.0514","PERIOD":"95.592","OBJECT_ID":"2020-035BH","BSTAR":"0.00069614000000","REF_FRAME":"TEME","CENTER_NAME":"EARTH","OBJECT_NAME":"STARLINK-1434","EPOCH":"2022-10-26T20:55:37.773408","NORAD_CAT_ID":"45712"}];
